[{"OBJECT_NAME":"SAUDICOMSAT 4","OBJECT_ID":"2007-012L","EPOCH":"2026-03-09T21:03:47.196576","MEAN_MOTION":14.64379004,"ECCENTRICITY":0.00628756,"INCLINATION":98.3883,"RA_OF_ASC_NODE":39.4922,"ARG_OF_PERICENTER":207.7023,"MEAN_ANOMALY":152.0825,"EPHEMERIS_TYPE":0,"CLASSIFICATION_TYPE":"U","NORAD_CAT_ID":31127,"ELEMENT_SET_NO":999,"REV_AT_EPOCH":675,"BSTAR":0.00016117094,"MEAN_MOTION_DOT":8.23e-6,"MEAN_MOTION_DDOT":0},{"OBJECT_NAME":"COSMOS 2251 DEB","OBJECT_ID":"1993-036FP","EPOCH":"2026-03-09T22:27:27.902304","MEAN_MOTION":14.5927471,"ECCENTRICITY":0.00281677,"INCLINATION":74.0185,"RA_OF_ASC_NODE":253.1199,"ARG_OF_PERICENTER":12.1448,"MEAN_ANOMALY":109.4461,"EPHEMERIS_TYPE":0,"CLASSIFICATION_TYPE":"U","NORAD_CAT_ID":33980,"ELEMENT_SET_NO":999,"REV_AT_EPOCH":90066,"BSTAR":0.00076463058,"MEAN_MOTION_DOT":3.603e-5,"MEAN_MOTION_DDOT":0}]
